0 COSMOS 2251 DEB
1 35028U 93036AGR 13284.05060334  .00000364  00000-0  89889-4 0  3542
2 35028 074.0417 042.0549 0087881 218.4215 264.5573 14.53660675237223
0 COSMOS 2251 DEB
1 35028U 93036AGR 13287.00950149  .00000376  00000-0  92430-4 0  3552
2 35028 074.0421 036.4667 0087748 212.1436 268.9506 14.53662869237652
0 COSMOS 2251 DEB
1 35028U 93036AGR 13289.68368178  .00000434  00000-0  10558-3 0  3569
2 35028 074.0421 031.4165 0087629 206.4461 223.4172 14.53666109238042
0 COSMOS 2251 DEB
1 35028U 93036AGR 13291.96472370  .00000434  00000-0  10563-3 0  3570
2 35028 074.0418 027.1087 0087512 201.5992 280.5299 14.53668210238374
0 COSMOS 2251 DEB
1 35028U 93036AGR 13295.88630936  .00000401  00000-0  98032-4 0  3582
2 35028 074.0417 019.7023 0087306 193.2362 282.9852 14.53672730238945
